STARLINK-31816          
1 59742U 24090N   24142.41667824 -.01019509  00000+0 -41993-2 0  9997
2 59742  43.0024 329.6139 0001984 266.0494 116.3130 15.87345497  2503
STARLINK-31809          
1 59743U 24090P   24142.41667824 -.00916043  00000+0 -45901-2 0  9999
2 59743  43.0025 329.8473 0001411 269.0599  20.8048 15.83091043  2410
STARLINK-31779          
1 59744U 24090Q   24142.41667824 -.00928101  00000+0 -46435-2 0  9991
2 59744  43.0023 329.8361 0001466 272.0879  22.1744 15.83152111  2502
STARLINK-31805          
1 59745U 24090R   24142.41667824 -.00920404  00000+0 -46077-2 0  9992
2 59745  43.0023 329.8417 0001441 272.9221  19.1199 15.83120896  2525
STARLINK-31681          
1 59746U 24090S   24142.41667824 -.00935210  00000+0 -46754-2 0  9996
2 59746  43.0023 329.8309 0001467 271.7729  24.5321 15.83186193  2523
STARLINK-31636          
1 59747U 24090T   24142.41667824 -.00953034  00000+0 -47608-2 0  9990
2 59747  43.0022 329.8196 0001504 268.4832  32.4252 15.83246500  2527
STARLINK-31640          
1 59748U 24090U   24142.41667824 -.00941896  00000+0 -47058-2 0  9993
2 59748  43.0022 329.8252 0001674 276.8868  21.7643 15.83214151  2523
STARLINK-31677          
1 59749U 24090V   24142.41667824 -.00957807  00000+0 -47795-2 0  9991
2 59749  43.0021 329.8140 0001976 266.3739  36.7524 15.83275826  2525
STARLINK-31783          
1 59750U 24090W   24142.41667824 -.00966120  00000+0 -48179-2 0  9998
2 59750  43.0022 329.8092 0001769 274.3346  30.7235 15.83312184  2530
STARLINK-31808          
1 59751U 24090X   24142.41667824 -.00975632  00000+0 -48645-2 0  9995
2 59751  43.0022 329.8036 0001453 265.7920  41.5059 15.83342930  2526
STARLINK-31822          
1 59752U 24090Y   24142.41667824 -.00982487  00000+0 -48942-2 0  9992
2 59752  43.0023 329.7989 0001421 262.1488  47.0408 15.83379524  2527
2024-092A               
1 59773U 24092A   24142.49138316  .00039008  00000+0  93197-3 0  9997
2 59773  97.2460 254.6539 0011741 229.7278 130.2943 15.41333766   704
2024-092B               
1 59774U 24092B   24142.53339406  .00016245  00000+0  10353-2 0  9996
2 59774  97.5877 254.6632 0011917 288.6128 134.5557 15.08753615   662
2024-092C               
1 59775U 24092C   24142.53292481  .00015836  00000+0  10049-2 0  9995
2 59775  97.5993 254.6830 0011838 289.9345 133.2477 15.08918561   670
2024-092D               
1 59776U 24092D   24142.46947056  .00018565  00000+0  12187-2 0  9990
2 59776  97.5939 254.6066 0011550 256.0353 163.1392 15.07639682   667
2024-092E               
1 59777U 24092E   24142.60904661  .00017762  00000+0  11655-2 0  9999
2 59777  97.5961 254.7411 0012265 263.6077 192.8617 15.07656679   685
2024-092F               
1 59778U 24092F   24142.46986946  .00017546  00000+0  11499-2 0  9996
2 59778  97.5960 254.6051 0012443 265.4722 156.8973 15.07704203   669
2024-092G               
1 59779U 24092G   24142.40482988  .00001094  00000+0  43188-3 0  9990
2 59779  98.6031 254.5501 0010996 278.1367  81.8519 14.31067858   620
2024-092H               
1 59780U 24092H   24142.40481249  .00000925  00000+0  36765-3 0  9996
2 59780  98.6054 254.5495 0011242 279.4576  80.5256 14.31072946   628
2024-092J               
1 59781U 24092J   24142.54463793  .00001665  00000+0  64815-3 0  9995
2 59781  98.6047 254.6875 0011419 278.5901  81.3882 14.31078934   641
2024-094A               
1 59805U 24094A   24142.55187968  .00021558  00000+0  90606-3 0  9992
2 59805  97.4729 213.4514 0009992 265.6957  94.3138 15.23398310   212
2024-094B               
1 59806U 24094B   24142.48557786  .00021932  00000+0  90274-3 0  9991
2 59806  97.4726 213.3870 0010578 282.6731  77.3323 15.24093975   199
2024-094C               
1 59807U 24094C   24142.48577675  .00021693  00000+0  89898-3 0  9995
2 59807  97.4740 213.3867 0010725 276.6953  83.3063 15.23866425   190
2024-094D               
1 59808U 24094D   24142.48589130  .00021400  00000+0  89040-3 0  9990
2 59808  97.4727 213.3865 0010312 273.9969  86.0089 15.23737899   193
2024-092K               
1 59809U 24092K   24142.46956306  .00017248  00000+0  11321-2 0  9991
2 59809  97.5950 254.6040 0012445 262.2644 157.6430 15.07651206   167
2024-095A               
1 59810U 24095A   24142.57072236 -.00000065  00000+0  00000+0 0  9998
2 59810  97.5951 217.9488 0009511 267.2808 202.4380 15.11373594    63
2024-095B               
1 59811U 24095B   24142.57060770 -.00000065  00000+0  00000+0 0  9999
2 59811  97.5859 217.9413 0009103 270.2647 198.9416 15.11422566    64
2024-095C               
1 59812U 24095C   24142.57061252 -.00000065  00000+0  00000+0 0  9996
2 59812  97.5996 217.9390 0008873 277.5147 191.9698 15.11628529    61
2024-095D               
1 59813U 24095D   24142.57073392 -.00000065  00000+0  00000+0 0  9995
2 59813  97.5976 217.9370 0007302 271.8054 198.5731 15.11800662    69
NOAA 1                  
1 04793U 70106A   24142.12592981 -.00000019  00000+0  14828-3 0  9993
2 04793 101.4472 195.1994 0031653  30.9495  24.8880 12.54027767446274
NOAA 2 (ITOS-D)         
1 06235U 72082A   24141.63207170 -.00000015  00000+0  19972-3 0  9990
2 06235 102.0148 140.2878 0004110 167.3843 303.0444 12.53179865360051
NOAA 3                  
1 06920U 73086A   24141.93996634 -.00000022  00000+0  17983-3 0  9997
2 06920 102.2753 137.6949 0006954  76.2684 339.1366 12.40367493288193
NOAA 4                  
1 07529U 74089A   24141.60907612 -.00000026  00000+0  12947-3 0  9998
2 07529 101.9867 135.6181 0008786 198.4884 273.5969 12.53179962264629
NOAA 5                  
1 09057U 76077A   24141.87760691 -.00000014  00000+0  24034-3 0  9995
2 09057 102.2058 115.3542 0009300 287.5714 127.8978 12.37800286160992
TIROS N                 
1 11060U 78096A   24142.12828941  .00000510  00000+0  26555-3 0  9997
2 11060  98.5339 183.5301 0009281 274.2410  85.7706 14.18810258571619
NOAA 6                  
1 11416U 79057A   24141.63155322  .00001043  00000+0  38551-3 0  9992
2 11416  98.6300 162.8865 0009762 349.0076  11.0894 14.34501871342512
NOAA 7                  
1 12553U 81059A   24141.59362180  .00000234  00000+0  13739-3 0  9999
2 12553  98.8949 200.8883 0010383 273.4331  86.5656 14.17524749217406
NOAA 8                  
1 13923U 83022A   24142.54114721  .00000468  00000+0  20162-3 0  9992
2 13923  98.7298 142.4572 0014085 314.5489  45.4541 14.29238769143226
NOAA 9                  
1 15427U 84123A   24142.55439737  .00000411  00000+0  22963-3 0  9993
2 15427  99.1176 139.3392 0014305 335.8579 132.8842 14.16587475 36518
NOAA 10                 
1 16969U 86073A   24141.96124169  .00000539  00000+0  23193-3 0  9992
2 16969  98.6398 128.1519 0013139  55.1157   2.9389 14.28610970961526
NOAA 11                 
1 19531U 88089A   24141.86186435  .00000276  00000+0  16245-3 0  9990
2 19531  98.5164 105.6348 0010321 318.3882  41.6506 14.15532007840575
NOAA 12                 
1 21263U 91032A   24141.56674401  .00000404  00000+0  18581-3 0  9997
2 21263  98.5568 133.3077 0014931  83.3175 276.9704 14.26306402717206
NOAA 13                 
1 22739U 93050A   24142.38269883  .00000401  00000+0  23674-3 0  9999
2 22739  98.6045 100.9083 0010378 125.6947 234.5193 14.13208032586708
NOAA 14                 
1 23455U 94089A   24142.20895283  .00000215  00000+0  13364-3 0  9996
2 23455  98.4318 139.7115 0010712  99.1148 261.1239 14.14390894516429
NOAA 15                 
1 25338U 98030A   24142.51449422  .00000543  00000+0  24259-3 0  9991
2 25338  98.5701 170.1965 0011138  48.2108 312.0022 14.26580754353631
NOAA 16                 
1 26536U 00055A   24141.83203155  .00000317  00000+0  19000-3 0  9994
2 26536  98.5332 182.6776 0009571 319.2644  40.7813 14.13576810220218
NOAA 17                 
1 27453U 02032A   24142.53825154  .00000454  00000+0  21062-3 0  9990
2 27453  98.7617  93.1462 0012362  31.0607 329.1300 14.25573682139168
NOAA 18                 
1 28654U 05018A   24142.44579123  .00000480  00000+0  27951-3 0  9995
2 28654  98.8743 219.6322 0015149 136.6570 223.5796 14.13210735979487
NOAA 19                 
1 33591U 09005A   24142.39342066  .00000448  00000+0  26431-3 0  9995
2 33591  99.0486 197.9070 0013847  12.4963 347.6549 14.13008240787845
SUOMI NPP               
1 37849U 11061A   24142.39974790  .00000265  00000+0  14631-3 0  9991
2 37849  98.7214  80.7827 0001246  57.6448 302.4849 14.19571934651065
NOAA 20 (JPSS-1)        
1 43013U 17073A   24142.48816280  .00000233  00000+0  13091-3 0  9993
2 43013  98.7057  80.8576 0000540  28.4149 331.7057 14.19586385337111
NOAA 21 (JPSS-2)        
1 54234U 22150A   24142.16965383  .00000315  00000+0  16996-3 0  9994
2 54234  98.7511  80.3820 0000881 110.2453 249.8817 14.19574102 79149
ISS (ZARYA)             
1 25544U 98067A   24142.35003124  .00022843  00000+0  38371-3 0  9994
2 25544  51.6390  88.3709 0003333 191.4959 306.2513 15.51667899454382
CSS (TIANHE)            
1 48274U 21035A   24142.51949336  .00057703  00000+0  56992-3 0  9994
2 48274  41.4682 245.9237 0002588  27.1057 332.9918 15.65000685174923
ISS (NAUKA)             
1 49044U 21066A   24141.35932815  .00024786  00000+0  41629-3 0  9995
2 49044  51.6363  93.2944 0003127 191.6193 168.4725 15.51622041454239
FREGAT DEB              
1 49271U 11037PF  24142.17358086  .00039630  00000+0  87453-1 0  9994
2 49271  51.6613  65.5121 0981335  65.2915 304.6841 12.15409779131910
CSS (WENTIAN)           
1 53239U 22085A   24141.56224685  .00060762  00000+0  60241-3 0  9995
2 53239  41.4682 251.7852 0002694  18.5458 341.5480 15.64888082102470
CSS (MENGTIAN)          
1 54216U 22143A   24141.56224685  .00060762  00000+0  60241-3 0  9996
2 54216  41.4682 251.7852 0002694  18.5458 341.5480 15.64888082 88367
